norad_id,name,regime,epoch,line1,line2,inclination,eccentricity,mean_motion,raan,arg_pericenter,mean_anomaly
25049,SIRIUS 2 (GE-1E),GEO,11104.96476065,1 25049U 97071A   11104.96476065  .00000055  00000-0  10000-3 0    01\,2 25049 002.1343 074.5717 0006022 299.4597 060.8410 00.99402016 49116,2.1343,0.0006022,0.99402016,74.5717,299.4597,60.841
25049,SIRIUS 2 (GE-1E),GEO,11104.96476765,1 25049U 97071A   11104.96476765 +.00000055 +00000-0 +10000-3 0 00019\,2 25049 002.1343 074.5725 0006023 299.4285 060.8738 00.99402015049112,2.1343,0.0006023,0.99402015,74.5725,299.4285,60.8738
25049,SIRIUS 2 (GE-1E),GEO,11105.97064469,1 25049U 97071A   11105.97064469 +.00000065 +00000-0 +10000-3 0 00027\,2 25049 002.1368 074.5648 0006029 298.9863 061.2812 00.99402167049122,2.1368,0.0006029,0.99402167,74.5648,298.9863,61.2812
25049,SIRIUS 2 (GE-1E),GEO,11106.97646123,1 25049U 97071A   11106.97646123  .00000073  00000-0  10000-3 0    19\,2 25049 002.1392 074.5536 0006025 298.5596 061.6553 00.99402356 49137,2.1392,0.0006025,0.99402356,74.5536,298.5596,61.6553
25049,SIRIUS 2 (GE-1E),GEO,11107.98222464,1 25049U 97071A   11107.98222464 +.00000080 +00000-0 +10000-3 0 00039\,2 25049 002.1416 074.5442 0005998 298.3423 061.7995 00.99402577049142,2.1416,0.0005998,0.99402577,74.5442,298.3423,61.7995
25049,SIRIUS 2 (GE-1E),GEO,11108.98797840,1 25049U 97071A   11108.98797840 +.00000083 +00000-0 +10000-3 0 00038\,2 25049 002.1440 074.5330 0005951 298.0659 062.0013 00.99402827049156,2.144,0.0005951,0.99402827,74.533,298.0659,62.0013
25049,SIRIUS 2 (GE-1E),GEO,11108.98798009,1 25049U 97071A   11108.98798009  .00000083  00000-0  10000-3 0    25\,2 25049 002.1439 074.5310 0005998 298.3721 061.6988 00.99402839 49155,2.1439,0.0005998,0.99402839,74.531,298.3721,61.6988
25049,SIRIUS 2 (GE-1E),GEO,11109.99376225,1 25049U 97071A   11109.99376225 +.00000085 +00000-0 +10000-3 0 00043\,2 25049 002.1464 074.5201 0005942 297.8981 062.1090 00.99403122049160,2.1464,0.0005942,0.99403122,74.5201,297.8981,62.109
25049,SIRIUS 2 (GE-1E),GEO,11110.99958913,1 25049U 97071A   11110.99958913 +.00000085 +00000-0 +10000-3 0 00045\,2 25049 002.1490 074.5069 0005843 297.7975 062.1653 00.99403438049179,2.149,0.0005843,0.99403438,74.5069,297.7975,62.1653
25049,SIRIUS 2 (GE-1E),GEO,11110.99958985,1 25049U 97071A   11110.99958985  .00000084  00000-0  10000-3 0    32\,2 25049 002.1489 074.5063 0005902 297.8915 062.0731 00.99403447 49178,2.1489,0.0005902,0.99403447,74.5063,297.8915,62.0731
25049,SIRIUS 2 (GE-1E),GEO,11112.00548446,1 25049U 97071A   11112.00548446 +.00000082 +00000-0 +10000-3 0 00064\,2 25049 002.1516 074.4956 0005807 298.3398 061.6009 00.99403775049182,2.1516,0.0005807,0.99403775,74.4956,298.3398,61.6009
25049,SIRIUS 2 (GE-1E),GEO,11113.01145131,1 25049U 97071A   11113.01145131  .00000079  00000-0  10000-3 0    44\,2 25049 002.1541 074.4828 0005785 298.2439 061.7053 00.99404148 49194,2.1541,0.0005785,0.99404148,74.4828,298.2439,61.7053
25049,SIRIUS 2 (GE-1E),GEO,11113.01145477,1 25049U 97071A   11113.01145477 +.00000079 +00000-0 +10000-3 0 00058\,2 25049 002.1542 074.4855 0005778 298.0879 061.8595 00.99404144049191,2.1542,0.0005778,0.99404144,74.4855,298.0879,61.8595
25049,SIRIUS 2 (GE-1E),GEO,11114.01744661,1 25049U 97071A   11114.01744661 +.00000074 +00000-0 +10000-3 0 00087\,2 25049 002.1568 074.4677 0005815 299.2881 060.6804 00.99404520049209,2.1568,0.0005815,0.9940452,74.4677,299.2881,60.6804
25049,SIRIUS 2 (GE-1E),GEO,11115.02345112,1 25049U 97071A   11115.02345112  .00000068  00000-0  10000-3 0    57\,2 25049 002.1591 074.4550 0005839 299.5856 060.4073 00.99404933 49211,2.1591,0.0005839,0.99404933,74.455,299.5856,60.4073
25049,SIRIUS 2 (GE-1E),GEO,11115.02345513,1 25049U 97071A   11115.02345513 +.00000068 +00000-0 +10000-3 0 00063\,2 25049 002.1591 074.4574 0005868 299.7095 060.2819 00.99404928049216,2.1591,0.0005868,0.99404928,74.4574,299.7095,60.2819
25049,SIRIUS 2 (GE-1E),GEO,11116.02945421,1 25049U 97071A   11116.02945421 +.00000061 +00000-0 +10000-3 0 00083\,2 25049 002.1615 074.4437 0005881 300.2852 059.7304 00.99405348049225,2.1615,0.0005881,0.99405348,74.4437,300.2852,59.7304
25049,SIRIUS 2 (GE-1E),GEO,11117.03541339,1 25049U 97071A   11117.03541339  .00000052  00000-0  10000-3 0    63\,2 25049 002.1639 074.4323 0005902 299.8439 060.1818 00.99405773 49232,2.1639,0.0005902,0.99405773,74.4323,299.8439,60.1818
25049,SIRIUS 2 (GE-1E),GEO,11118.04133185,1 25049U 97071A   11118.04133185 +.00000042 +00000-0 +10000-3 0 00082\,2 25049 002.1662 074.4191 0005907 301.2988 058.7242 00.99406203049247,2.1662,0.0005907,0.99406203,74.4191,301.2988,58.7242
25049,SIRIUS 2 (GE-1E),GEO,11119.04719626,1 25049U 97071A   11119.04719626  .00000029  00000-0  10000-3 0    77\,2 25049 002.1686 074.4069 0005888 301.3824 058.6206 00.99406635 49254,2.1686,0.0005888,0.99406635,74.4069,301.3824,58.6206
25049,SIRIUS 2 (GE-1E),GEO,11119.04720056,1 25049U 97071A   11119.04720056 +.00000029 +00000-0 +10000-3 0 00087\,2 25049 002.1686 074.4074 0005888 301.3910 058.6130 00.99406635049252,2.1686,0.0005888,0.99406635,74.4074,301.391,58.613
25049,SIRIUS 2 (GE-1E),GEO,11120.05301353,1 25049U 97071A   11120.05301353 +.00000015 +00000-0 +10000-3 0 00103\,2 25049 002.1709 074.3984 0005889 300.2090 059.7567 00.99407067049262,2.1709,0.0005889,0.99407067,74.3984,300.209,59.7567
25049,SIRIUS 2 (GE-1E),GEO,11121.05878042,1 25049U 97071A   11121.05878042 -.00000002  00000-0  10000-3 0    82\,2 25049 002.1732 074.3857 0005891 300.2824 059.6328 00.99407489 49278,2.1732,0.0005891,0.99407489,74.3857,300.2824,59.6328
25049,SIRIUS 2 (GE-1E),GEO,11123.07024646,1 25049U 97071A   11123.07024646 -.00000042  00000-0  10000-3 0    94\,2 25049 002.1779 074.3607 0005880 300.8431 058.9499 00.99408269 49290,2.1779,0.000588,0.99408269,74.3607,300.8431,58.9499
25049,SIRIUS 2 (GE-1E),GEO,11123.07025010,1 25049U 97071A   11123.07025010 -.00000042 +00000-0 +10000-3 0 00102\,2 25049 002.1779 074.3610 0005880 300.8249 058.9692 00.99408269049296,2.1779,0.000588,0.99408269,74.361,300.8249,58.9692
25049,SIRIUS 2 (GE-1E),GEO,11125.08176211,1 25049U 97071A   11125.08176211 -.00000088  00000-0  10000-3 0   105\,2 25049 002.1826 074.3358 0005877 301.0888 058.6052 00.99408940 49312,2.1826,0.0005877,0.9940894,74.3358,301.0888,58.6052
25049,SIRIUS 2 (GE-1E),GEO,11125.08176521,1 25049U 97071A   11125.08176521 -.00000088 +00000-0 +10000-3 0 00110\,2 25049 002.1826 074.3373 0005872 300.9191 058.7749 00.99408941049314,2.1826,0.0005872,0.99408941,74.3373,300.9191,58.7749
25049,SIRIUS 2 (GE-1E),GEO,11127.09346555,1 25049U 97071A   11127.09346555 -.00000139  00000-0  10000-3 0   116\,2 25049 002.1872 074.3173 0005780 299.6706 059.9924 00.99409472 49337,2.1872,0.000578,0.99409472,74.3173,299.6706,59.9924
25049,SIRIUS 2 (GE-1E),GEO,11128.09939985,1 25049U 97071A   11128.09939985 -.00000164 +00000-0 +10000-3 0 00132\,2 25049 002.1895 074.3064 0005764 300.1822 059.4962 00.99409667049344,2.1895,0.0005764,0.99409667,74.3064,300.1822,59.4962
25049,SIRIUS 2 (GE-1E),GEO,11129.10535528,1 25049U 97071A   11129.10535528 -.00000188  00000-0  10000-3 0   125\,2 25049 002.1918 074.2935 0005760 300.1798 059.5246 00.99409816 49357,2.1918,0.000576,0.99409816,74.2935,300.1798,59.5246
25049,SIRIUS 2 (GE-1E),GEO,11129.10538147,1 25049U 97071A   11129.10538147  .00000000  00000-0  10000-3 0   138\,2 25049 002.1925 074.2650 0006388 318.9719 040.7457 00.99406719 49351,2.1925,0.0006388,0.99406719,74.265,318.9719,40.7457
25049,SIRIUS 2 (GE-1E),GEO,11130.11131701,1 25049U 97071A   11130.11131701 -.00000211 +00000-0 +10000-3 0 00131\,2 25049 002.1943 074.2843 0005756 300.9377 058.7908 00.99409911049362,2.1943,0.0005756,0.99409911,74.2843,300.9377,58.7908
25049,SIRIUS 2 (GE-1E),GEO,11131.11726728,1 25049U 97071A   11131.11726728 -.00000233  00000-0  10000-3 0   146\,2 25049 002.1966 074.2712 0005763 301.3601 058.3933 00.99409956 49379,2.1966,0.0005763,0.99409956,74.2712,301.3601,58.3933
25049,SIRIUS 2 (GE-1E),GEO,11131.11726883,1 25049U 97071A   11131.11726883 -.00000233 +00000-0 +10000-3 0 00159\,2 25049 002.1966 074.2720 0005760 301.3079 058.4457 00.99409960049371,2.1966,0.000576,0.9940996,74.272,301.3079,58.4457
25049,SIRIUS 2 (GE-1E),GEO,11132.12316022,1 25049U 97071A   11132.12316022 -.00000253 +00000-0 +10000-3 0 00175\,2 25049 002.1990 074.2603 0005746 302.7329 057.0222 00.99409951049381,2.199,0.0005746,0.99409951,74.2603,302.7329,57.0222
25049,SIRIUS 2 (GE-1E),GEO,11133.12897298,1 25049U 97071A   11133.12897298 -.00000270  00000-0  10000-3 0   152\,2 25049 002.2015 074.2465 0005732 305.1146 054.6142 00.99409881 49392,2.2015,0.0005732,0.99409881,74.2465,305.1146,54.6142
25049,SIRIUS 2 (GE-1E),GEO,11134.13473686,1 25049U 97071A   11134.13473686 -.00000286 +00000-0 +10000-3 0 00185\,2 25049 002.2038 074.2366 0005765 306.8709 052.8108 00.99409758049403,2.2038,0.0005765,0.99409758,74.2366,306.8709,52.8108
25049,SIRIUS 2 (GE-1E),GEO,11135.14044793,1 25049U 97071A   11135.14044793 -.00000300  00000-0  10000-3 0   165\,2 25049 002.2061 074.2243 0005764 306.9107 052.7087 00.99409583 49417,2.2061,0.0005764,0.99409583,74.2243,306.9107,52.7087
25049,SIRIUS 2 (GE-1E),GEO,11135.14044856,1 25049U 97071A   11135.14044856 -.00000300 +00000-0 +10000-3 0 00176\,2 25049 002.2061 074.2251 0005768 307.0208 052.5979 00.99409581049410,2.2061,0.0005768,0.99409581,74.2251,307.0208,52.5979
25049,SIRIUS 2 (GE-1E),GEO,11136.14614627,1 25049U 97071A   11136.14614627 -.00000312 +00000-0 +10000-3 0 00180\,2 25049 002.2084 074.2125 0005770 307.1641 052.3867 00.99409352049421,2.2084,0.000577,0.99409352,74.2125,307.1641,52.3867
25049,SIRIUS 2 (GE-1E),GEO,11138.15765039,1 25049U 97071A   11138.15765039 -.00000328  00000-0  10000-3 0   173\,2 25049 002.2131 074.1864 0005761 307.5765 051.8754 00.99408740 49445,2.2131,0.0005761,0.9940874,74.1864,307.5765,51.8754
25049,SIRIUS 2 (GE-1E),GEO,11138.15765282,1 25049U 97071A   11138.15765282 -.00000329 +00000-0 +10000-3 0 00185\,2 25049 002.2132 074.1879 0005773 307.9729 051.4776 00.99408737049445,2.2132,0.0005773,0.99408737,74.1879,307.9729,51.4776
